STARLINK-11725 [DTC]    
1 64125U 25111C   25251.55965067  .00263782  00000+0  19883-2 0  9994
2 64125  42.9990 351.7732 0001038 279.9495  80.1255 15.70916419 17998
STARLINK-11717 [DTC]    
1 64126U 25111D   25252.26436565  .00263411  00000+0  19709-2 0  9996
2 64126  42.9989 347.6001 0002132 246.0891 113.9754 15.71093024 18057
STARLINK-11721 [DTC]    
1 64127U 25111E   25252.29079067  .00206856  00000+0  15766-2 0  9999
2 64127  43.0008 346.9223 0003031 321.8659  38.1994 15.70826046 18111
STARLINK-11722 [DTC]    
1 64128U 25111F   25252.24845112  .00220777  00000+0  16744-2 0  9992
2 64128  43.0014 347.4738 0002287 284.8791  75.1823 15.70901841 18055
STARLINK-11679 [DTC]    
1 64129U 25111G   25252.23250952  .00262959  00000+0  19861-2 0  9995
2 64129  42.9989 347.3435 0002278 239.5391 120.5252 15.70870030 18103
STARLINK-11735 [DTC]    
1 64130U 25111H   25251.42718214  .00252870  00000+0  19089-2 0  9990
2 64130  42.9988 352.4963 0002727 297.5414  62.5176 15.70912081 17827
STARLINK-11720 [DTC]    
1 64131U 25111J   25252.23782572  .00262263  00000+0  19621-2 0  9998
2 64131  43.0005 347.3854 0003830 308.3779  51.6744 15.71095057 18055
STARLINK-11718 [DTC]    
1 64132U 25111K   25251.57649193  .00221729  00000+0  16781-2 0  9992
2 64132  42.9993 351.9054 0001097 276.6710  83.4033 15.70949028 18046
STARLINK-11716 [DTC]    
1 64133U 25111L   25252.26967796  .00217942  00000+0  16449-2 0  9995
2 64133  42.9990 347.6407 0006017 296.9681  63.0572 15.71010654 18156
STARLINK-11714 [DTC]    
1 64134U 25111M   25252.28547234  .00086573  00000+0  67006-3 0  9999
2 64134  42.9988 346.8738 0001737 286.0351  74.0325 15.70878935 18117
STARLINK-11712 [DTC]    
1 64135U 25111N   25251.96238120  .00271090  00000+0  20372-2 0  9999
2 64135  42.9987 349.6431 0001206 320.9250  39.1530 15.70966131 18054
STARLINK-34254          
1 64136U 25111P   25252.08960763  .00021013  00000+0  77075-3 0  9990
2 64136  43.0030  23.1386 0001943 283.5953  76.4683 15.27587555 17694
STARLINK-34230          
1 64137U 25111Q   25252.05634411  .00019981  00000+0  73326-3 0  9992
2 64137  43.0005  23.7425 0001412 267.7412  92.3278 15.27597162 17683
STARLINK-34129          
1 64138U 25111R   25252.06405946  .00009015  00000+0  33694-3 0  9994
2 64138  42.9982  23.8032 0000382 206.6537 153.4295 15.27558756 17736
STARLINK-34212          
1 64139U 25111S   25252.09988769  .00023776  00000+0  87052-3 0  9994
2 64139  43.0045  23.2121 0001634 276.9446  83.1220 15.27588659 17699
STARLINK-34149          
1 64140U 25111T   25251.65245992  .00036345  00000+0  13237-2 0  9990
2 64140  42.9987  25.8733 0000966 274.9274  85.1468 15.27581820 17627
STARLINK-34054          
1 64141U 25111U   25251.64989090  .00036311  00000+0  13225-2 0  9994
2 64141  43.0035  25.8551 0002131 280.1081  79.9530 15.27579607 17624
STARLINK-34195          
1 64142U 25111V   25252.09603218  .00029754  00000+0  10861-2 0  9996
2 64142  43.0048  23.1816 0001821 268.2763  91.7880 15.27587554 17690
STARLINK-34133          
1 64143U 25111W   25251.37292639  .00025251  00000+0  92336-3 0  9994
2 64143  42.9988  27.2154 0000643  59.8120 300.2796 15.27602264 17582
STARLINK-34181          
1 64144U 25111X   25252.04863737  .00028037  00000+0  10246-2 0  9997
2 64144  43.0027  23.6880 0001801 273.1646  86.8999 15.27576744 17682
STARLINK-34186          
1 64145U 25111Y   25252.05763505  .00023136  00000+0  84753-3 0  9991
2 64145  43.0040  23.7520 0001288 267.4510  92.6194 15.27583319 17683
STARLINK-34314          
1 64146U 25112A   25252.10468140  .00005161  00000+0  36170-3 0  9994
2 64146  97.6016 302.5042 0001144 141.2654 218.8655 15.05640216 15989
STARLINK-33926          
1 64147U 25112B   25252.14622013  .00006192  00000+0  43295-3 0  9991
2 64147  97.6029 302.6059 0001447  84.7976 275.3415 15.05653145 15995
STARLINK-34213          
1 64148U 25112C   25252.11298341  .00004209  00000+0  29573-3 0  9992
2 64148  97.6015 302.4937 0001207  95.9857 264.1508 15.05651969 15980
STARLINK-33924          
1 64149U 25112D   25252.12128933  .00003064  00000+0  21643-3 0  9991
2 64149  97.6022 302.4853 0001304 109.5373 250.5995 15.05654756 15985
STARLINK-34209          
1 64150U 25112E   25252.13791338  .00004327  00000+0  30387-3 0  9997
2 64150  97.6032 302.6153 0001228 105.6963 254.4399 15.05657987 15991
STARLINK-34338          
1 64151U 25112F   25252.12960811  .00005741  00000+0  40170-3 0  9993
2 64151  97.6029 302.6276 0001533  88.7381 271.4022 15.05652882 15999
STARLINK-34348          
1 64152U 25112G   25252.02990896  .00004561  00000+0  32008-3 0  9999
2 64152  97.6026 302.4525 0001805 193.0808 167.0372 15.05650054 15973
STARLINK-34345          
1 64153U 25112H   25252.22095998 -.00011557  00000+0 -79796-3 0  9991
2 64153  97.6025 302.6625 0001601  74.1758 285.9645 15.05654717 16001
STARLINK-33945          
1 64154U 25112J   25252.13357319  .00038110  00000+0  88903-3 0  9992
2 64154  97.5950 304.9270 0003005 123.6625 236.4908 15.42128255 16144
STARLINK-34346          
1 64155U 25112K   25252.14068111  .00004571  00000+0  32073-3 0  9994
2 64155  97.6030 302.6199 0001738 105.0388 255.1031 15.05657416 15993
STARLINK-34277          
1 64156U 25112L   25252.10746748  .00009148  00000+0  63723-3 0  9991
2 64156  97.6021 302.5102 0000713  69.2489 290.8814 15.05659316 15987
STARLINK-34343          
1 64157U 25112M   25252.22374111  .00031390  00000+0  21682-2 0  9997
2 64157  97.6023 302.6652 0000768 102.9186 257.2127 15.05683724 16008
STARLINK-34166          
1 64158U 25112N   25252.12405911  .00004762  00000+0  33399-3 0  9992
2 64158  97.6025 302.4884 0001134 105.5982 254.5370 15.05651593 15982
STARLINK-34344          
1 64159U 25112P   25252.11573903  .00001200  00000+0  87338-4 0  9996
2 64159  97.6015 302.4994 0002614 356.2277   3.8929 15.05657507 15986
STARLINK-34339          
1 64160U 25112Q   25252.09914000  .00005262  00000+0  36859-3 0  9995
2 64160  97.6027 302.5223 0001077  94.2314 265.9036 15.05652969 15987
STARLINK-34341          
1 64161U 25112R   25252.14898827  .00006867  00000+0  47958-3 0  9994
2 64161  97.6024 302.6126 0001562 111.0591 249.0803 15.05655309 15999
STARLINK-34317          
1 64162U 25112S   25252.13237916  .00003106  00000+0  21940-3 0  9996
2 64162  97.6033 302.6312 0001711  89.7550 270.3872 15.05647494 15998
STARLINK-34340          
1 64163U 25112T   25252.11023649  .00023167  00000+0  16045-2 0  9999
2 64163  97.6008 302.5041 0001454 110.1581 249.9803 15.05652471 15982
STARLINK-34263          
1 64164U 25112U   25252.10190777  .00004792  00000+0  33604-3 0  9990
2 64164  97.6026 302.5178 0000922  86.0686 274.0646 15.05652877 15984
STARLINK-33793          
1 64165U 25112V   25252.16005959  .00006543  00000+0  45719-3 0  9990
2 64165  97.6020 302.5965 0000636 107.4534 252.6762 15.05656257 15993
STARLINK-34313          
1 64166U 25112W   25252.15172253 -.00013533  00000+0 -93529-3 0  9993
2 64166  97.6009 302.6078 0002022  77.8771 282.2683 15.05656383 15992
STARLINK-34309          
1 64167U 25112X   25252.14345231  .00006563  00000+0  45863-3 0  9992
2 64167  97.6027 302.6201 0001200 136.6436 223.4885 15.05651525 15994
STARLINK-34303          
1 64168U 25112Y   25252.13514693  .00005556  00000+0  38898-3 0  9993
2 64168  97.6028 302.6321 0001034 104.2603 255.8739 15.05651277 15992
STARLINK-34175          
1 64169U 25112Z   25252.11852740  .00006456  00000+0  45159-3 0  9998
2 64169  97.6018 302.4956 0001822  83.5220 276.6215 15.05621323 15981
STARLINK-34177          
1 64170U 25113A   25251.63747616  .00025574  00000+0  87236-3 0  9996
2 64170  53.1603 216.6404 0001522  90.3099 269.8076 15.30209208 17197
STARLINK-34228          
1 64171U 25113B   25252.27162355  .00024550  00000+0  83829-3 0  9996
2 64171  53.1578 213.4864 0001455  82.1599 277.9567 15.30198485 17293
STARLINK-34233          
1 64172U 25113C   25252.10839242  .00027156  00000+0  92543-3 0  9993
2 64172  53.1593 214.6032 0001181  68.2191 291.8935 15.30207007 17262
STARLINK-34172          
1 64173U 25113D   25252.27267688  .00021093  00000+0  72215-3 0  9999
2 64173  53.1593 213.4905 0001043  69.2337 290.8775 15.30205540 17259
STARLINK-34202          
1 64174U 25113E   25252.10100868  .00027651  00000+0  94155-3 0  9991
2 64174  53.1597 214.5551 0001689 100.9641 259.1550 15.30223106 17268
STARLINK-34231          
1 64175U 25113F   25252.18215729  .00027996  00000+0  95254-3 0  9996
2 64175  53.1583 214.3480 0001256  92.0433 268.0711 15.30243367 17273
STARLINK-34191          
1 64176U 25113G   25252.19364630  .00029765  00000+0  10127-2 0  9995
2 64176  53.1571 213.7090 0001084 113.4100 246.7015 15.30210294 17283
STARLINK-34164          
1 64177U 25113H   25252.18953901  .00025724  00000+0  87716-3 0  9990
2 64177  53.1568 214.3971 0001343  94.7983 265.3172 15.30218105 17272
STARLINK-34227          
1 64178U 25113J   25252.03885940  .00025710  00000+0  87677-3 0  9993
2 64178  53.1592 214.8751 0001381  94.4587 265.6572 15.30215082 17256
STARLINK-34194          
1 64179U 25113K   25252.26423637  .00026931  00000+0  91769-3 0  9993
2 64179  53.1576 213.4400 0001160  95.9409 264.1724 15.30214799 17290
STARLINK-34000          
1 64180U 25113L   25252.28534168  .00015483  00000+0  53361-3 0  9995
2 64180  53.1603 213.5686 0001445  72.0172 288.0986 15.30210163 17251
STARLINK-33917          
1 64181U 25113M   25252.18109645  .00032338  00000+0  10989-2 0  9999
2 64181  53.1582 214.3397 0001763  45.5090 314.6054 15.30207847 17272
STARLINK-34131          
1 64182U 25113N   25252.16737677  .00027526  00000+0  93740-3 0  9990
2 64182  53.1604 214.2545 0001656  75.0259 285.0925 15.30222148 17233
STARLINK-34188          
1 64183U 25113P   25252.18320564  .00027565  00000+0  93870-3 0  9993
2 64183  53.1578 214.3572 0001398  74.1016 286.0139 15.30222528 17273
